[{"OBJECT_NAME":"OBJECT D","OBJECT_ID":"2024-085D","EPOCH":"2026-03-09T22:53:13.410816","MEAN_MOTION":15.33413141,"ECCENTRICITY":0.00152451,"INCLINATION":97.3312,"RA_OF_ASC_NODE":145.3953,"ARG_OF_PERICENTER":54.9672,"MEAN_ANOMALY":305.2998,"EPHEMERIS_TYPE":0,"CLASSIFICATION_TYPE":"U","NORAD_CAT_ID":59680,"ELEMENT_SET_NO":999,"REV_AT_EPOCH":10244,"BSTAR":0.00049264705,"MEAN_MOTION_DOT":0.00015903,"MEAN_MOTION_DDOT":0},{"OBJECT_NAME":"STARLINK-31788","OBJECT_ID":"2024-112T","EPOCH":"2026-03-09T06:59:01.324320","MEAN_MOTION":15.30191134,"ECCENTRICITY":0.00013298,"INCLINATION":53.1602,"RA_OF_ASC_NODE":79.9803,"ARG_OF_PERICENTER":79.9603,"MEAN_ANOMALY":280.1547,"EPHEMERIS_TYPE":0,"CLASSIFICATION_TYPE":"U","NORAD_CAT_ID":60055,"ELEMENT_SET_NO":999,"REV_AT_EPOCH":9853,"BSTAR":1.102446e-5,"MEAN_MOTION_DOT":-3.3e-7,"MEAN_MOTION_DDOT":0}]
